NORAD_CAT_ID,OBJECT_NAME,OBJECT_TYPE,EPOCH,MEAN_MOTION,ECCENTRICITY,INCLINATION,RA_OF_ASC_NODE,ARG_OF_PERICENTER,MEAN_ANOMALY,BSTAR,MEAN_MOTION_DOT,MEAN_MOTION_DDOT,TLE_LINE0,TLE_LINE1,TLE_LINE2,SEMIMAJOR_AXIS,PERIOD,APOGEE,PERIGEE,DECAYED
54775.0,STARLINK-5465,PAYLOAD,2023-02-18 03:44:36,15.08838971,0.0001286,53.2167,11.7776,118.4652,241.6469,-0.00014954,-2.667e-05,0.0,0 STARLINK-5465,1 54775U 22175T   23049.15597688 -.00002667  00000-0 -14954-3 0  9991,2 54775  53.2167  11.7776 0001286 118.4652 241.6469 15.08838971  9356,6917.884,95.438,540.638,538.859,0.0
54775.0,STARLINK-5465,PAYLOAD,2023-02-18 14:52:17,15.08852868,0.0001345,53.2175,9.6926,107.6714,252.4425,-9.4287e-05,-1.789e-05,0.0,0 STARLINK-5465,1 54775U 22175T   23049.61964552 -.00001789  00000-0 -94287-4 0  9992,2 54775  53.2175   9.6926 0001345 107.6714 252.4425 15.08852868  9424,6917.841,95.437,540.637,538.776,0.0
54775.0,STARLINK-5465,PAYLOAD,2023-02-19 06:46:07,15.08856709,0.0002029,53.2176,6.72,75.8477,284.2741,0.00030723,4.607e-05,0.0,0 STARLINK-5465,1 54775U 22175T   23050.28203193  .00004607  00000-0  30723-3 0  9998,2 54775  53.2176   6.7200 0002029  75.8477 284.2741 15.08856709  9523,6917.829,95.436,541.098,538.291,0.0
54775.0,STARLINK-5465,PAYLOAD,2023-02-20 03:26:09,15.08838879,0.0001333,53.2174,2.8562,72.1822,287.9316,2.4885e-05,1.08e-06,0.0,0 STARLINK-5465,1 54775U 22175T   23051.14317065  .00000108  00000-0  24885-4 0  9993,2 54775  53.2174   2.8562 0001333  72.1822 287.9316 15.08838879  9650,6917.884,95.438,540.671,538.827,0.0
54775.0,STARLINK-5465,PAYLOAD,2023-02-20 06:36:55,15.08843481,0.000146,53.2174,2.2588,81.469,278.6468,5.9611e-05,6.61e-06,0.0,0 STARLINK-5465,1 54775U 22175T   23051.27564587  .00000661  00000-0  59611-4 0  9999,2 54775  53.2174   2.2588 0001460  81.4690 278.6468 15.08843481 11832,6917.87,95.437,540.745,538.725,0.0
54775.0,STARLINK-5465,PAYLOAD,2023-02-21 12:49:15,15.08843184,0.0001933,53.2177,356.6113,89.5693,270.552,-3.6644e-07,-2.94e-06,0.0,0 STARLINK-5465,1 54775U 22175T   23052.53420312 -.00000294  00000-0 -36644-6 0  9993,2 54775  53.2177 356.6113 0001933  89.5693 270.5520 15.08843184 12024,6917.871,95.437,541.073,538.398,0.0
54775.0,STARLINK-5465,PAYLOAD,2023-02-21 19:10:47,15.0883571,0.0001339,53.2192,355.4247,89.9294,270.1851,2.5339e-05,1.15e-06,0.0,0 STARLINK-5465,1 54775U 22175T   23052.79916573  .00000115  00000-0  25339-4 0  9997,2 54775  53.2192 355.4247 0001339  89.9294 270.1851 15.08835710  9909,6917.894,95.438,540.685,538.832,0.0
54775.0,STARLINK-5465,PAYLOAD,2023-02-21 20:46:11,15.08841885,0.0001484,53.2205,355.1255,88.5942,271.522,-0.00011128,-2.059e-05,0.0,0 STARLINK-5465,1 54775U 22175T   23052.86540818 -.00002059  00000-0 -11128-3 0  9991,2 54775  53.2205 355.1255 0001484  88.5942 271.5220 15.08841885 12073,6917.875,95.437,540.766,538.713,0.0
54775.0,STARLINK-5465,PAYLOAD,2023-02-22 03:07:43,15.08847353,0.0001134,53.2175,353.9342,70.1075,290.004,5.3208e-06,-2.03e-06,0.0,0 STARLINK-5465,1 54775U 22175T   23053.13035953 -.00000203  00000-0  53208-5 0  9996,2 54775  53.2175 353.9342 0001134  70.1075 290.0040 15.08847353  9953,6917.858,95.437,540.507,538.938,0.0
54775.0,STARLINK-5465,PAYLOAD,2023-02-22 04:43:06,15.08848868,0.0001198,53.2177,353.6366,74.034,286.0784,2.0598e-05,4e-07,0.0,0 STARLINK-5465,1 54775U 22175T   23053.19659784  .00000040  00000-0  20598-4 0  9999,2 54775  53.2177 353.6366 0001198  74.0340 286.0784 15.08848868 12121,6917.853,95.437,540.547,538.89,0.0
54775.0,STARLINK-5465,PAYLOAD,2023-02-22 23:47:45,15.08825732,0.0001272,53.2184,350.0691,106.2524,253.8609,-0.000133,-2.403e-05,0.0,0 STARLINK-5465,1 54775U 22175T   23053.99150379 -.00002403  00000-0 -13300-3 0  9992,2 54775  53.2184 350.0691 0001272 106.2524 253.8609 15.08825732 10082,6917.924,95.438,540.669,538.909,0.0
54775.0,STARLINK-5465,PAYLOAD,2023-02-23 06:09:18,15.08831461,0.0001339,53.2183,348.8779,85.877,274.2375,-9.6664e-05,-1.826e-05,0.0,0 STARLINK-5465,1 54775U 22175T   23054.25646192 -.00001826  00000-0 -96664-4 0  9998,2 54775  53.2183 348.8779 0001339  85.8770 274.2375 15.08831461 10120,6917.906,95.438,540.698,538.845,0.0
54775.0,STARLINK-5465,PAYLOAD,2023-02-24 01:13:53,15.08855567,0.0001058,53.2171,345.3116,100.3947,259.7164,0.00023488,3.454e-05,0.0,0 STARLINK-5465,1 54775U 22175T   23055.05131328  .00003454  00000-0  23488-3 0  9997,2 54775  53.2171 345.3116 0001058 100.3947 259.7164 15.08855567 10241,6917.833,95.437,540.43,538.966,0.0
54775.0,STARLINK-5465,PAYLOAD,2023-02-24 04:24:39,15.08864771,0.0001058,53.2175,344.7163,79.7596,280.3515,0.00021297,3.105e-05,0.0,0 STARLINK-5465,1 54775U 22175T   23055.18378791  .00003105  00000-0  21297-3 0  9997,2 54775  53.2175 344.7163 0001058  79.7596 280.3515 15.08864771 10268,6917.805,95.436,540.402,538.938,0.0
54775.0,STARLINK-5465,PAYLOAD,2023-02-24 18:43:10,15.08836586,0.0001004,53.2186,342.0418,90.3016,269.8091,-4.5893e-05,-1.018e-05,0.0,0 STARLINK-5465,1 54775U 22175T   23055.77997724 -.00001018  00000-0 -45893-4 0  9997,2 54775  53.2186 342.0418 0001004  90.3016 269.8091 15.08836586 10355,6917.891,95.438,540.45,539.061,0.0
54775.0,STARLINK-5465,PAYLOAD,2023-02-25 04:15:28,15.08838161,7.82e-05,53.2186,340.2563,83.2885,276.8197,-9.1449e-06,-4.33e-06,0.0,0 STARLINK-5465,1 54775U 22175T   23056.17741570 -.00000433  00000-0 -91449-5 0  9997,2 54775  53.2186 340.2563 0000782  83.2885 276.8197 15.08838161 12575,6917.886,95.438,540.292,539.21,0.0
54775.0,STARLINK-5465,PAYLOAD,2023-02-26 02:30:50,15.08869118,0.0001166,53.218,336.0932,72.3678,287.7441,-8.4578e-06,-4.23e-06,0.0,0 STARLINK-5465,1 54775U 22175T   23057.10475545 -.00000423  00000-0 -84578-5 0  9991,2 54775  53.2180 336.0932 0001166  72.3678 287.7441 15.08869118 10553,6917.791,95.436,540.463,538.85,0.0
54775.0,STARLINK-5465,PAYLOAD,2023-02-26 04:06:14,15.08863124,0.0001458,53.2186,335.7959,65.8325,294.282,-4.2162e-05,-9.59e-06,0.0,0 STARLINK-5465,1 54775U 22175T   23057.17099977 -.00000959  00000-0 -42162-4 0  9995,2 54775  53.2186 335.7959 0001458  65.8325 294.2820 15.08863124 10560,6917.81,95.436,540.683,538.666,0.0
54775.0,STARLINK-5465,PAYLOAD,2023-02-27 00:46:15,15.08847068,0.000132,53.2184,331.9298,73.8277,286.286,0.00011,1.464e-05,0.0,0 STARLINK-5465,1 54775U 22175T   23058.03211862  .00001464  00000-0  11000-3 0  9996,2 54775  53.2184 331.9298 0001320  73.8277 286.2860 15.08847068 10693,6917.859,95.437,540.637,538.811,0.0
54775.0,STARLINK-5465,PAYLOAD,2023-02-27 03:56:59,15.08864059,0.0001191,53.2183,331.3347,76.1385,283.9739,0.00023722,3.492e-05,0.0,0 STARLINK-5465,1 54775U 22175T   23058.16458298  .00003492  00000-0  23722-3 0  9993,2 54775  53.2183 331.3347 0001191  76.1385 283.9739 15.08864059 10714,6917.807,95.436,540.496,538.848,0.0
54775.0,STARLINK-5465,PAYLOAD,2023-02-27 18:15:29,15.08859221,0.0001346,53.2183,328.6593,82.0754,278.039,-7.5502e-05,-1.49e-05,0.0,0 STARLINK-5465,1 54775U 22175T   23058.76075348 -.00001490  00000-0 -75502-4 0  9992,2 54775  53.2183 328.6593 0001346  82.0754 278.0390 15.08859221 10807,6917.822,95.436,540.618,538.755,0.0
54775.0,STARLINK-5465,PAYLOAD,2023-02-27 19:50:52,15.08858704,0.0001402,53.2182,328.3622,80.264,279.851,-7.7793e-05,-1.526e-05,0.0,0 STARLINK-5465,1 54775U 22175T   23058.82699318 -.00001526  00000-0 -77793-4 0  9992,2 54775  53.2182 328.3622 0001402  80.2640 279.8510 15.08858704 12971,6917.823,95.436,540.658,538.718,0.0
54775.0,STARLINK-5465,PAYLOAD,2023-02-28 02:12:22,15.0887953,0.0001374,53.2182,327.1725,92.4776,267.6373,0.00011944,1.615e-05,0.0,0 STARLINK-5465,1 54775U 22175T   23059.09192743  .00001615  00000-0  11944-3 0  9994,2 54775  53.2182 327.1725 0001374  92.4776 267.6373 15.08879530 10852,6917.76,95.435,540.575,538.674,0.0
54775.0,STARLINK-5465,PAYLOAD,2023-02-28 03:47:44,15.08887942,0.0001265,53.2181,326.875,93.2006,266.9131,0.00018761,2.703e-05,0.0,0 STARLINK-5465,1 54775U 22175T   23059.15815798  .00002703  00000-0  18761-3 0  9996,2 54775  53.2181 326.8750 0001265  93.2006 266.9131 15.08887942 10860,6917.734,95.435,540.474,538.724,0.0
54775.0,STARLINK-5465,PAYLOAD,2023-02-28 21:17:05,15.08810705,0.0001421,53.2179,323.6044,119.9418,240.1715,-0.00044791,-7.404e-05,0.0,0 STARLINK-5465,1 54775U 22175T   23059.88687434 -.00007404  00000-0 -44791-3 0  9997,2 54775  53.2179 323.6044 0001421 119.9418 240.1715 15.08810705 13133,6917.97,95.439,540.818,538.852,0.0
54775.0,STARLINK-5465,PAYLOAD,2023-03-01 02:03:15,15.08808106,0.0001043,53.2176,322.712,69.3989,290.7115,-0.00046798,-7.721e-05,0.0,0 STARLINK-5465,1 54775U 22175T   23060.08560142 -.00007721  00000-0 -46798-3 0  9998,2 54775  53.2176 322.7120 0001043  69.3989 290.7115 15.08808106 11007,6917.978,95.44,540.564,539.121,0.0
54775.0,STARLINK-5465,PAYLOAD,2023-03-01 08:24:47,15.08823003,0.0001009,53.2176,321.522,78.0709,282.0396,-0.00030897,-5.199e-05,0.0,0 STARLINK-5465,1 54775U 22175T   23060.35054997 -.00005199  00000-0 -30897-3 0  9994,2 54775  53.2176 321.5220 0001009  78.0709 282.0396 15.08823003 11046,6917.932,95.439,540.495,539.099,0.0
54775.0,STARLINK-5465,PAYLOAD,2023-03-01 21:07:51,15.08834805,9.88e-05,53.2177,319.1466,63.1433,296.966,-0.00010213,-1.913e-05,0.0,0 STARLINK-5465,1 54775U 22175T   23060.88046266 -.00001913  00000-0 -10213-3 0  9992,2 54775  53.2177 319.1466 0000988  63.1433 296.9660 15.08834805 13284,6917.896,95.438,540.445,539.078,0.0
54775.0,STARLINK-5465,PAYLOAD,2023-03-02 03:29:23,15.08849201,9.88e-05,53.2174,317.9544,96.7377,263.3727,1.3547e-05,-7.2e-07,0.0,0 STARLINK-5465,1 54775U 22175T   23061.14540963 -.00000072  00000-0  13547-4 0  9993,2 54775  53.2174 317.9544 0000988  96.7377 263.3727 15.08849201 11166,6917.852,95.437,540.401,539.034,0.0
54775.0,STARLINK-5465,PAYLOAD,2023-03-02 19:23:15,15.0882068,0.0001003,53.2178,314.9812,66.5284,293.5814,0.00037783,5.727e-05,0.0,0 STARLINK-5465,1 54775U 22175T   23061.80782018  .00005727  00000-0  37783-3 0  9993,2 54775  53.2178 314.9812 0001003  66.5284 293.5814 15.08820680 11269,6917.939,95.439,540.498,539.111,0.0
